{
	"categories": [{
		"name": "Highway",
		"sections": [{
			"name": "Roads",
			"items": [
				{"types": ["way"], "tags": {"highway": "motorway"}},
				{"types": ["way"], "tags": {"highway": "trunk"}},
				{"types": ["way"], "tags": {"highway": "primary"}},
				{"types": ["way"], "tags": {"highway": "secondary"}},
				{"types": ["way"], "tags": {"highway": "tertiary"}},
				{"types": ["way"], "tags": {"highway": "unclassified"}},
				{"types": ["way"], "tags": {"highway": "residential"}},
				{"types": ["way"], "tags": {"highway": "service"}}
			]
		}]
	},{
		"name": "Building",
		"sections": [{
			"name": "Accommodation",
			"items": [
				{"types": ["area"], "tags": {"building": "apartments"}},
				{"types": ["area"], "tags": {"building": "farm"}},
				{"types": ["area"], "tags": {"building": "hotel"}},
				{"types": ["area"], "tags": {"building": "house"}},
				{"types": ["area"], "tags": {"building": "detached"}},
				{"types": ["area"], "tags": {"building": "residential"}},
				{"types": ["area"], "tags": {"building": "dormitory"}},
				{"types": ["area"], "tags": {"building": "terrace"}},
				{"types": ["area"], "tags": {"building": "houseboat"}},
				{"types": ["area"], "tags": {"building": "bungalow"}},
				{"types": ["area"], "tags": {"building": "static_caravan"}}
			]
		},{
			"name": "Commercial",
			"items": [
				{"types": ["area"], "tags": {"building": "commercial"}},
				{"types": ["area"], "tags": {"building": "office"}},
				{"types": ["area"], "tags": {"building": "industrial"}},
				{"types": ["area"], "tags": {"building": "retail"}},
				{"types": ["area"], "tags": {"building": "warehouse"}}
			]
		}]
	},{
		"name": "Landuse",
		"sections": [{
			"name": "",
			"items": [
				{"types": ["node", "area"],	"tags": {"landuse": "allotments"}},
				{"types": ["node", "area"],	"tags": {"landuse": "basin"}},
				{"types": ["node", "area"],	"tags": {"landuse": "brownfield"}},
				{"types": ["area"],			"tags": {"landuse": "cemetery"}}
			]
		}]
	},{
		"name": "Man Made",
		"sections": [{
			"name": "",
			"items": [
				{"types": ["node", "area"],	"tags": {"man_made": "adit"}},
				{"types": ["node"],			"tags": {"man_made": "beacon"}},
				{"types": ["way", "area"],	"tags": {"man_made": "breakwater"}},
				{"types": ["area"],			"tags": {"man_made": "bridge"}}
			]
		}]
	}]
}
